NORAD_CAT_ID,OBJECT_NAME,OBJECT_TYPE,EPOCH,MEAN_MOTION,ECCENTRICITY,INCLINATION,RA_OF_ASC_NODE,ARG_OF_PERICENTER,MEAN_ANOMALY,BSTAR,MEAN_MOTION_DOT,MEAN_MOTION_DDOT,TLE_LINE0,TLE_LINE1,TLE_LINE2,SEMIMAJOR_AXIS,PERIOD,APOGEE,PERIGEE,DECAYED
52987.0,STARLINK-4259,PAYLOAD,2023-03-15 02:35:52,15.08878246,0.0001196,53.2165,319.9263,81.0891,279.0237,0.0015278,0.00024136,0.0,0 STARLINK-4259,1 52987U 22076B   23074.10824888  .00024136  00000-0  15278-2 0  9994,2 52987  53.2165 319.9263 0001196  81.0891 279.0237 15.08878246 38530,6917.763,95.435,540.456,538.801,0.0
52987.0,STARLINK-4259,PAYLOAD,2023-03-15 16:54:21,15.08857358,0.0001495,53.2164,317.2506,91.311,268.8054,0.0011115,0.00017454,0.0,0 STARLINK-4259,1 52987U 22076B   23074.70441095  .00017454  00000-0  11115-2 0  9996,2 52987  53.2164 317.2506 0001495  91.3110 268.8054 15.08857358 38624,6917.827,95.436,540.727,538.658,0.0
52987.0,STARLINK-4259,PAYLOAD,2023-03-15 21:40:30,15.08849753,0.000134,53.2157,316.3556,79.912,280.2023,0.00073713,0.00011466,0.0,0 STARLINK-4259,1 52987U 22076B   23074.90313037  .00011466  00000-0  73713-3 0  9992,2 52987  53.2157 316.3556 0001340  79.9120 280.2023 15.08849753 38188,6917.851,95.437,540.643,538.789,0.0
52987.0,STARLINK-4259,PAYLOAD,2023-03-15 23:15:53,15.08856103,0.0001364,53.2163,316.0612,81.4649,278.6498,0.00051546,7.929e-05,0.0,0 STARLINK-4259,1 52987U 22076B   23074.96936917  .00007929  00000-0  51546-3 0  9995,2 52987  53.2163 316.0612 0001364  81.4649 278.6498 15.08856103 38662,6917.831,95.437,540.64,538.753,0.0
52987.0,STARLINK-4259,PAYLOAD,2023-03-16 23:06:41,15.08835327,0.0001249,53.2146,311.6035,98.7959,261.3174,0.00044577,6.813e-05,0.0,0 STARLINK-4259,1 52987U 22076B   23075.96298000  .00006813  00000-0  44577-3 0  9997,2 52987  53.2146 311.6035 0001249  98.7959 261.3174 15.08835327 38812,6917.895,95.438,540.624,538.896,0.0
52987.0,STARLINK-4259,PAYLOAD,2023-03-17 08:39:00,15.08835852,0.0001542,53.2146,309.8163,92.4349,267.682,0.0005052,7.761e-05,0.0,0 STARLINK-4259,1 52987U 22076B   23076.36042272  .00007761  00000-0  50520-3 0  9998,2 52987  53.2146 309.8163 0001542  92.4349 267.6820 15.08835852 38408,6917.893,95.438,540.825,538.691,0.0
52987.0,STARLINK-4259,PAYLOAD,2023-03-18 00:32:51,15.08848386,0.0001424,53.2148,306.8419,93.9411,266.1743,0.00057321,8.849e-05,0.0,0 STARLINK-4259,1 52987U 22076B   23077.02282063  .00008849  00000-0  57321-3 0  9990,2 52987  53.2148 306.8419 0001424  93.9411 266.1743 15.08848386 38972,6917.855,95.437,540.705,538.735,0.0
52987.0,STARLINK-4259,PAYLOAD,2023-03-18 21:12:52,15.08835825,0.000138,53.215,302.9759,96.5503,263.5646,6.5439e-05,7.54e-06,0.0,0 STARLINK-4259,1 52987U 22076B   23077.88394461  .00000754  00000-0  65439-4 0  9997,2 52987  53.2150 302.9759 0001380  96.5503 263.5646 15.08835825 39104,6917.893,95.438,540.713,538.803,0.0
52987.0,STARLINK-4259,PAYLOAD,2023-03-19 08:20:34,15.08844143,0.0001423,53.2152,300.894,96.7402,263.3752,0.00037686,5.716e-05,0.0,0 STARLINK-4259,1 52987U 22076B   23078.34762425  .00005716  00000-0  37686-3 0  9993,2 52987  53.2152 300.8940 0001423  96.7402 263.3752 15.08844143 38707,6917.868,95.437,540.717,538.748,0.0
52987.0,STARLINK-4259,PAYLOAD,2023-03-19 21:03:39,15.08861593,0.0001376,53.215,298.5151,94.5113,265.6036,0.00084563,0.00013204,0.0,0 STARLINK-4259,1 52987U 22076B   23078.87753886  .00013204  00000-0  84563-3 0  9999,2 52987  53.2150 298.5151 0001376  94.5113 265.6036 15.08861593 39253,6917.814,95.436,540.631,538.727,0.0
52987.0,STARLINK-4259,PAYLOAD,2023-03-20 00:14:25,15.08867076,0.000136,53.2147,297.9206,93.2294,266.8854,0.0010003,0.00015679,0.0,0 STARLINK-4259,1 52987U 22076B   23079.01001697  .00015679  00000-0  10003-2 0  9997,2 52987  53.2147 297.9206 0001360  93.2294 266.8854 15.08867076 38805,6917.798,95.436,540.603,538.722,0.0
52987.0,STARLINK-4259,PAYLOAD,2023-03-20 20:54:25,15.08853924,0.0001372,53.214,294.0549,80.1185,279.9962,0.00031201,4.683e-05,0.0,0 STARLINK-4259,1 52987U 22076B   23079.87113357  .00004683  00000-0  31201-3 0  9995,2 52987  53.2140 294.0549 0001372  80.1185 279.9962 15.08853924 39402,6917.838,95.437,540.652,538.754,0.0
52987.0,STARLINK-4259,PAYLOAD,2023-03-21 00:05:12,15.08855433,0.0001357,53.2145,293.4602,80.1733,279.9412,0.00026149,3.878e-05,0.0,0 STARLINK-4259,1 52987U 22076B   23080.00361253  .00003878  00000-0  26149-3 0  9992,2 52987  53.2145 293.4602 0001357  80.1733 279.9412 15.08855433 38958,6917.833,95.437,540.637,538.759,0.0
52987.0,STARLINK-4259,PAYLOAD,2023-03-21 20:45:12,15.08842719,0.0001482,53.2151,289.5933,84.0068,276.1093,-1.2615e-06,-3.08e-06,0.0,0 STARLINK-4259,1 52987U 22076B   23080.86473326 -.00000308  00000-0 -12615-5 0  9993,2 52987  53.2151 289.5933 0001482  84.0068 276.1093 15.08842719 39555,6917.872,95.437,540.762,538.712,0.0
52987.0,STARLINK-4259,PAYLOAD,2023-03-22 20:35:59,15.08842752,0.00013,53.2145,285.1335,86.1222,273.9919,5.3046e-05,5.56e-06,0.0,0 STARLINK-4259,1 52987U 22076B   23081.85833209  .00000556  00000-0  53046-4 0  9998,2 52987  53.2145 285.1335 0001300  86.1222 273.9919 15.08842752 39234,6917.872,95.437,540.636,538.838,0.0
52987.0,STARLINK-4259,PAYLOAD,2023-03-22 23:46:46,15.08845444,0.000134,53.2148,284.5381,85.7884,274.3261,9.9598e-05,1.298e-05,0.0,0 STARLINK-4259,1 52987U 22076B   23081.99081073  .00001298  00000-0  99598-4 0  9993,2 52987  53.2148 284.5381 0001340  85.7884 274.3261 15.08845444 39724,6917.864,95.437,540.656,538.802,0.0
52987.0,STARLINK-4259,PAYLOAD,2023-03-23 06:08:18,15.08841054,0.0001227,53.2141,283.3473,80.1865,279.9265,4.5469e-05,4.36e-06,0.0,0 STARLINK-4259,1 52987U 22076B   23082.25577319  .00000436  00000-0  45469-4 0  9997,2 52987  53.2141 283.3473 0001227  80.1865 279.9265 15.08841054 39298,6917.877,95.437,540.591,538.893,0.0
52987.0,STARLINK-4259,PAYLOAD,2023-03-23 20:26:47,15.08839203,0.0001184,53.2135,280.6759,105.7091,254.4031,-0.00017253,-3.033e-05,0.0,0 STARLINK-4259,1 52987U 22076B   23082.85193746 -.00003033  00000-0 -17253-3 0  9998,2 52987  53.2135 280.6759 0001184 105.7091 254.4031 15.08839203 39859,6917.883,95.438,540.567,538.929,0.0
52987.0,STARLINK-4259,PAYLOAD,2023-03-24 05:59:05,15.08863175,0.0001284,53.2141,278.8891,92.1743,267.9397,0.00035563,5.38e-05,0.0,0 STARLINK-4259,1 52987U 22076B   23083.24936825  .00005380  00000-0  35563-3 0  9994,2 52987  53.2141 278.8891 0001284  92.1743 267.9397 15.08863175 39912,6917.81,95.436,540.563,538.786,0.0
52987.0,STARLINK-4259,PAYLOAD,2023-03-24 20:17:32,15.08869319,0.0001328,53.2151,276.2119,88.3888,271.7256,0.00050784,7.81e-05,0.0,0 STARLINK-4259,1 52987U 22076B   23083.84552021  .00007810  00000-0  50784-3 0  9994,2 52987  53.2151 276.2119 0001328  88.3888 271.7256 15.08869319 39535,6917.791,95.436,540.574,538.737,0.0
52987.0,STARLINK-4259,PAYLOAD,2023-03-25 05:49:53,15.08818625,0.0001475,53.2151,274.4284,101.2153,258.9005,-0.00050322,-8.283e-05,0.0,0 STARLINK-4259,1 52987U 22076B   23084.24297700 -.00008283  00000-0 -50322-3 0  9994,2 52987  53.2151 274.4284 0001475 101.2153 258.9005 15.08818625 40064,6917.946,95.439,540.831,538.79,0.0
52987.0,STARLINK-4259,PAYLOAD,2023-03-25 20:08:23,15.08796535,0.0001187,53.215,271.7532,111.6956,248.4162,-0.00049621,-8.167e-05,0.0,0 STARLINK-4259,1 52987U 22076B   23084.83915671 -.00008167  00000-0 -49621-3 0  9994,2 52987  53.2150 271.7532 0001187 111.6956 248.4162 15.08796535 40158,6918.013,95.44,540.699,539.057,0.0
52987.0,STARLINK-4259,PAYLOAD,2023-03-26 12:02:14,15.08826874,6.75e-05,53.2157,268.7791,144.0185,216.0853,0.00014228,1.977e-05,0.0,0 STARLINK-4259,1 52987U 22076B   23085.50155351  .00001977  00000-0  14228-3 0  9995,2 52987  53.2157 268.7791 0000675 144.0185 216.0853 15.08826874 40252,6917.921,95.438,540.252,539.319,0.0
52987.0,STARLINK-4259,PAYLOAD,2023-03-26 18:23:46,15.08838846,0.0001086,53.2147,267.5902,107.5304,252.5807,0.00034347,5.183e-05,0.0,0 STARLINK-4259,1 52987U 22076B   23085.76651371  .00005183  00000-0  34347-3 0  9993,2 52987  53.2147 267.5902 0001086 107.5304 252.5807 15.08838846 40296,6917.884,95.438,540.5,538.998,0.0
52987.0,STARLINK-4259,PAYLOAD,2023-03-27 11:53:01,15.08845745,0.0001133,53.2168,264.3194,104.0593,256.0525,0.00072866,0.0001133,0.0,0 STARLINK-4259,1 52987U 22076B   23086.49515573  .00011330  00000-0  72866-3 0  9996,2 52987  53.2168 264.3194 0001133 104.0593 256.0525 15.08845745 39933,6917.863,95.437,540.512,538.944,0.0
52987.0,STARLINK-4259,PAYLOAD,2023-03-27 18:14:33,15.08856663,0.0001166,53.2164,263.1303,96.3776,263.7349,0.00072524,0.00011278,0.0,0 STARLINK-4259,1 52987U 22076B   23086.76011107  .00011278  00000-0  72524-3 0  9992,2 52987  53.2164 263.1303 0001166  96.3776 263.7349 15.08856663 39974,6917.829,95.437,540.501,538.888,0.0
52987.0,STARLINK-4259,PAYLOAD,2023-03-27 23:00:42,15.08870918,0.0001318,53.2165,262.2364,108.4946,251.6189,0.00082734,0.00012915,0.0,0 STARLINK-4259,1 52987U 22076B   23086.95882326  .00012915  00000-0  82734-3 0  9995,2 52987  53.2165 262.2364 0001318 108.4946 251.6189 15.08870918 40479,6917.786,95.436,540.563,538.739,0.0
52987.0,STARLINK-4259,PAYLOAD,2023-03-28 11:43:47,15.08848637,0.0001291,53.2161,259.8575,103.315,256.7986,-5.2479e-05,-1.123e-05,0.0,0 STARLINK-4259,1 52987U 22076B   23087.48874485 -.00001123  00000-0 -52479-4 0  9996,2 52987  53.2161 259.8575 0001291 103.3150 256.7986 15.08848637 40083,6917.854,95.437,540.612,538.826,0.0
52987.0,STARLINK-4259,PAYLOAD,2023-03-28 16:29:56,15.08853521,0.0001213,53.2162,258.9653,103.3886,256.7241,8.8954e-05,1.129e-05,0.0,0 STARLINK-4259,1 52987U 22076B   23087.68746263  .00001129  00000-0  88954-4 0  9991,2 52987  53.2162 258.9653 0001213 103.3886 256.7241 15.08853521 40588,6917.839,95.437,540.543,538.865,0.0
52987.0,STARLINK-4259,PAYLOAD,2023-03-28 21:16:05,15.08855218,0.0001303,53.2163,258.0712,113.3069,246.806,0.00019618,2.837e-05,0.0,0 STARLINK-4259,1 52987U 22076B   23087.88617926  .00002837  00000-0  19618-3 0  9993,2 52987  53.2163 258.0712 0001303 113.3069 246.8060 15.08855218 40146,6917.834,95.437,540.6,538.797,0.0
